[{"OBJECT_NAME":"DROID.002","OBJECT_ID":"2025-052P","EPOCH":"2026-03-09T23:25:00.743520","MEAN_MOTION":15.22033904,"ECCENTRICITY":0.00055943,"INCLINATION":97.4049,"RA_OF_ASC_NODE":323.345,"ARG_OF_PERICENTER":112.4531,"MEAN_ANOMALY":247.7298,"EPHEMERIS_TYPE":0,"CLASSIFICATION_TYPE":"U","NORAD_CAT_ID":63223,"ELEMENT_SET_NO":999,"REV_AT_EPOCH":5477,"BSTAR":0.00036874909,"MEAN_MOTION_DOT":8.365e-5,"MEAN_MOTION_DDOT":0},{"OBJECT_NAME":"ZORKIY-2M-VPE","OBJECT_ID":"2025-313E","EPOCH":"2026-03-09T22:36:53.941536","MEAN_MOTION":15.22760121,"ECCENTRICITY":0.0009586,"INCLINATION":97.4008,"RA_OF_ASC_NODE":145.3388,"ARG_OF_PERICENTER":340.9586,"MEAN_ANOMALY":19.1291,"EPHEMERIS_TYPE":0,"CLASSIFICATION_TYPE":"U","NORAD_CAT_ID":67252,"ELEMENT_SET_NO":999,"REV_AT_EPOCH":1086,"BSTAR":0.00040752318,"MEAN_MOTION_DOT":9.461e-5,"MEAN_MOTION_DDOT":0}]
